{"type":"FeatureCollection","features":[{"type":"Feature","properties":{"name":"Marion","fips":"12083","available":true},"geometry":{"type":"Polygon","coordinates":[[[-82.311697,28.960390999999998],[-82.426997,29.021384999999995],[-82.535591,29.04485499999999],[-82.53486,29.21468],[-82.403237,29.215622999999997],[-82.40662,29.485047999999995],[-82.22501,29.484298000000003],[-82.213245,29.431764000000005],[-82.105688,29.435965999999997],[-82.055899,29.471231999999997],[-81.843009,29.521003999999998],[-81.776205,29.487448],[-81.741422,29.371049],[-81.680903,29.324429999999992],[-81.675523,29.310627999999998],[-81.667885,29.301488000000003],[-81.655677,29.299940000000003],[-81.648438,29.290173],[-81.641916,29.276765999999995],[-81.639151,29.062879999999993],[-81.658698,28.960344999999997],[-82.311697,28.960390999999998]]]}},{"type":"Feature","properties":{"name":"Monroe","fips":"12087","available":false},"geometry":{"type":"MultiPolygon","coordinates":[[[[-80.250581,25.341929999999998],[-80.260137,25.324641],[-80.268138,25.320674999999998],[-80.288184,25.282835],[-80.307584,25.257560999999995],[-80.351399,25.190615],[-80.354019,25.184305999999996],[-80.349855,25.168825000000002],[-80.35857,25.154073],[-80.377084,25.130487],[-80.399767,25.108536],[-80.428318,25.095546999999996],[-80.431032,25.08925],[-80.443375,25.076084],[-80.462011,25.069935000000005],[-80.47387,25.060253],[-80.493881,25.038502],[-80.48912,25.031300999999992],[-80.494781,25.023018999999998],[-80.537995,24.990244],[-80.565831,24.958154999999998],[-80.571668,24.953659],[-80.588272,24.951153],[-80.596073,24.948173000000004],[-80.611693,24.938419999999997],[-80.635571,24.913002999999996],[-80.659395,24.897433],[-80.66128,24.899704],[-80.660198,24.904980000000002],[-80.650765,24.908121],[-80.641306,24.914311000000005],[-80.623866,24.931236],[-80.624172,24.939057999999996],[-80.621658,24.944264999999994],[-80.597074,24.958492],[-80.58113100000001,24.96473799999999],[-80.578185,24.962811],[-80.570813,24.962214999999997],[-80.558785,24.971505],[-80.54411,24.999916],[-80.543254,25.007336999999996],[-80.545971,25.01477],[-80.524498,25.016945000000003],[-80.509136,25.028317],[-80.501326,25.041436],[-80.495569,25.047497],[-80.4889,25.050109999999997],[-80.481197,25.056603999999997],[-80.46065200000001,25.078904000000005],[-80.46549600000002,25.086608999999992],[-80.470211,25.089438],[-80.481763,25.091904999999997],[-80.494715,25.102269000000003],[-80.484188,25.109429999999993],[-80.47748,25.107406999999995],[-80.476174,25.099454],[-80.450399,25.088751000000002],[-80.433575,25.106316999999997],[-80.433499,25.114664999999995],[-80.447659,25.147729],[-80.446473,25.151287],[-80.41326,25.137052999999998],[-80.403177,25.141798000000005],[-80.395467,25.150693999999998],[-80.387164,25.170859],[-80.38835,25.182720999999997],[-80.391909,25.192209999999996],[-80.387164,25.198140999999996],[-80.369965,25.206443999999998],[-80.358696,25.207037],[-80.3498,25.210595],[-80.337345,25.231353],[-80.333787,25.253891],[-80.336159,25.261601],[-80.342683,25.268124999999998],[-80.368186,25.282359],[-80.364034,25.286509999999996],[-80.339421,25.290069],[-80.334676,25.285916999999998],[-80.328746,25.28651],[-80.315698,25.294219999999996],[-80.292567,25.314384999999994],[-80.28960200000002,25.325061],[-80.27596100000001,25.344039000000002],[-80.256982,25.361238999999994],[-80.25461,25.38081],[-80.251052,25.391485999999997],[-80.246307,25.398603],[-80.226142,25.406312999999994],[-80.21902500000002,25.411058000000004],[-80.21428,25.416988],[-80.20657,25.434188],[-80.199453,25.458503999999998],[-80.192336,25.473330999999998],[-80.189964,25.485786],[-80.191743,25.495274999999996],[-80.188778,25.50773],[-80.179288,25.518999000000004],[-80.174544,25.518405999999995],[-80.173951,25.482821],[-80.184033,25.468587000000003],[-80.204198,25.412243999999998],[-80.221991,25.397417000000004],[-80.238004,25.361832000000007],[-80.240376,25.347004999999992],[-80.250581,25.341929999999998]]],[[[-81.582923,24.658731999999997],[-81.580534,24.669139999999995],[-81.562917,24.692911999999996],[-81.55761,24.692487999999997],[-81.542116,24.681025999999996],[-81.535323,24.67954],[-81.51898,24.687818],[-81.516433,24.700340999999998],[-81.5124,24.703737000000004],[-81.490962,24.710105],[-81.476642,24.711244],[-81.474186,24.706331999999996],[-81.469275,24.704285999999993],[-81.459043,24.707355000000003],[-81.451881,24.714518],[-81.4527,24.736209],[-81.45658800000001,24.740097],[-81.451267,24.747464000000008],[-81.440831,24.73539],[-81.43858,24.72699999999999],[-81.432032,24.722908000000004],[-81.423028,24.731911000000004],[-81.421595,24.737641],[-81.427121,24.745827000000002],[-81.430599,24.747259],[-81.431009,24.751760999999995],[-81.425483,24.752989000000003],[-81.402769,24.749101],[-81.392947,24.743370999999993],[-81.390287,24.738459999999996],[-81.389468,24.731297999999995],[-81.38558,24.726182],[-81.36041,24.708788],[-81.345881,24.70756],[-81.319282,24.701237999999996],[-81.31478700000001,24.691763999999996],[-81.313933,24.680707],[-81.309664,24.665016999999995],[-81.298028,24.65677399999999],[-81.298369,24.654326],[-81.303113,24.651665],[-81.332831,24.639527999999995],[-81.395096,24.621062000000002],[-81.401946,24.623563999999995],[-81.403319,24.640294],[-81.414187,24.647166999999996],[-81.432315,24.645948999999998],[-81.448623,24.640172],[-81.470411,24.641984999999995],[-81.480951,24.645121],[-81.48183,24.64736899999999],[-81.477915,24.64989299999999],[-81.47641,24.653197],[-81.48050400000001,24.659757000000003],[-81.49858,24.664979999999996],[-81.502992,24.660877],[-81.50558500000001,24.654608999999997],[-81.511165,24.625134999999993],[-81.518595,24.620303999999997],[-81.54645,24.614895],[-81.602998,24.586443999999997],[-81.664209,24.573142999999998],[-81.674694,24.564359],[-81.685278,24.558738999999992],[-81.691575,24.559885999999995],[-81.732511,24.556422999999995],[-81.765993,24.552103],[-81.786157,24.54658],[-81.810333,24.544701],[-81.81289,24.546467999999994],[-81.814446,24.563579999999998],[-81.811386,24.569749999999996],[-81.800676,24.570989],[-81.794057,24.585999999999995],[-81.773808,24.584977],[-81.748071,24.590198999999995],[-81.739241,24.589972999999997],[-81.734573,24.584148000000003],[-81.730473,24.581959999999988],[-81.715944,24.587956],[-81.71548,24.592498],[-81.705364,24.597646999999995],[-81.699349,24.597646999999995],[-81.694235,24.591931999999996],[-81.687017,24.592533999999997],[-81.678595,24.597646999999995],[-81.66897,24.607872999999998],[-81.655735,24.616295],[-81.637087,24.621407999999995],[-81.614829,24.642763999999996],[-81.614529,24.650583999999995],[-81.597685,24.655396999999997],[-81.587759,24.655998000000004],[-81.582923,24.658731999999997]]],[[[-82.15068,24.576330999999993],[-82.143075,24.593395],[-82.135423,24.596879],[-82.125268,24.597426],[-82.104187,24.588256],[-82.101051,24.584678999999998],[-82.099417,24.572522000000003],[-82.104429,24.561167],[-82.116787,24.549144],[-82.159439,24.548211999999996],[-82.165206,24.552158999999996],[-82.164426,24.563375],[-82.15068,24.576330999999993]]],[[[-81.24979900000001,24.673356999999996],[-81.246095,24.675831999999993],[-81.243232,24.673998000000005],[-81.244761,24.669202],[-81.281778,24.653749999999995],[-81.278312,24.660448000000002],[-81.260006,24.674848],[-81.24979900000001,24.673356999999996]]],[[[-80.910431,24.782324],[-80.906288,24.769866999999998],[-80.912042,24.76505],[-80.938543,24.767535],[-81.01593300000002,24.719881000000004],[-81.023794,24.716901000000004],[-81.028616,24.720617999999998],[-81.032447,24.727322999999995],[-81.03429,24.727340999999996],[-81.064554,24.715452999999997],[-81.071034,24.711722],[-81.075855,24.704266],[-81.078439,24.692382],[-81.10804100000001,24.688592],[-81.124094,24.704873],[-81.12537100000002,24.708290999999996],[-81.107355,24.712760000000003],[-81.105287,24.711280000000002],[-81.099135,24.711993],[-81.066816,24.723926],[-81.041797,24.742965],[-81.036698,24.742826999999995],[-81.035192,24.739981999999998],[-81.02217,24.733091000000005],[-80.994426,24.743991],[-80.986454,24.752749000000005],[-80.960129,24.764225999999997],[-80.910431,24.782324]]],[[[-81.317673,24.75729],[-81.30546800000002,24.756612000000004],[-81.290801,24.736861999999995],[-81.288259,24.72088099999999],[-81.302984,24.714198999999997],[-81.310744,24.727068000000006],[-81.318505,24.729476999999996],[-81.326844,24.728374999999993],[-81.350162,24.746523999999997],[-81.35741700000001,24.756833999999998],[-81.342695,24.75625],[-81.327555,24.762315],[-81.324637,24.76721],[-81.317673,24.75729]]],[[[-80.89054,24.791677999999994],[-80.88402,24.790414],[-80.892649,24.785991],[-80.906874,24.783743999999995],[-80.89054,24.791677999999994]]],[[[-80.780564,24.840519999999998],[-80.790497,24.817789],[-80.796053,24.81194],[-80.822342,24.81262899999999],[-80.846191,24.802967999999993],[-80.850866,24.803701000000004],[-80.846142,24.807488],[-80.830158,24.814280000000004],[-80.79278,24.843917999999995],[-80.780564,24.840519999999998]]],[[[-80.732343,24.864809999999995],[-80.719977,24.86464399999999],[-80.703028,24.880872999999998],[-80.691762,24.885758999999997],[-80.69035400000001,24.881538999999993],[-80.71185,24.863323000000005],[-80.76135900000001,24.836225],[-80.766966,24.836158000000005],[-80.745468,24.850652],[-80.740611,24.85742099999999],[-80.732343,24.864809999999995]]],[[[-80.873096,25.805377],[-80.87319,25.363992999999997],[-80.858167,25.176575999999997],[-80.87546,25.174320999999996],[-80.900066,25.162034],[-80.901617,25.153802999999996],[-80.898911,25.147651999999997],[-80.900577,25.139668999999998],[-80.915924,25.14130099999999],[-80.943216,25.134442999999997],[-80.957427,25.135704],[-80.971765,25.133957999999993],[-80.999176,25.124222],[-81.022989,25.129393],[-81.05050500000002,25.128273],[-81.079859,25.118797],[-81.094524,25.127054000000005],[-81.120616,25.152302],[-81.133567,25.156295],[-81.141024,25.163867999999997],[-81.142278,25.182999999999996],[-81.146737,25.193138999999995],[-81.155481,25.208098],[-81.172044,25.222276],[-81.170907,25.245857],[-81.16207,25.289832999999994],[-81.159293,25.298595],[-81.1523,25.305543],[-81.148915,25.31806699999999],[-81.151916,25.324766],[-81.148103,25.332792999999995],[-81.140099,25.341116999999997],[-81.133913,25.342995999999996],[-81.12141,25.33875],[-81.118208,25.34522],[-81.117265,25.354953],[-81.128492,25.380510999999995],[-81.141395,25.381358000000002],[-81.150508,25.387255],[-81.150656,25.399205999999992],[-81.146765,25.407577000000003],[-81.168652,25.463848],[-81.179406,25.475426999999993],[-81.191924,25.484745],[-81.208201,25.504937000000005],[-81.210149,25.516888000000005],[-81.203175,25.534159999999996],[-81.20438900000002,25.538907999999996],[-81.209321,25.548610999999998],[-81.225557,25.55847],[-81.232705,25.573366000000004],[-81.233051,25.586586999999998],[-81.240519,25.599040999999993],[-81.240677,25.613628999999996],[-81.253951,25.638180999999996],[-81.277374,25.664979999999996],[-81.290328,25.687506000000003],[-81.328935,25.717232999999997],[-81.335037,25.715648999999996],[-81.346078,25.721473],[-81.343984,25.747668],[-81.346767,25.754029],[-81.355116,25.76039],[-81.359489,25.766354],[-81.361875,25.772714999999994],[-81.344779,25.782257],[-81.340406,25.786631],[-81.344564,25.803321999999998],[-80.873096,25.805377]]]]}},{"type":"Feature","properties":{"name":"Orange","fips":"12095","available":true},"geometry":{"type":"Polygon","coordinates":[[[-81.657268,28.347097999999995],[-81.658114,28.682709999999993],[-81.624731,28.78592699999999],[-81.414446,28.784955000000004],[-81.459695,28.644475],[-81.459501,28.640285],[-81.32865,28.639334],[-81.326991,28.610298],[-80.98725,28.612997],[-80.88089,28.503633],[-80.862908,28.347486999999997],[-81.657268,28.347097999999995]]]}},{"type":"Feature","properties":{"name":"St. Lucie","fips":"12111","available":true},"geometry":{"type":"Polygon","coordinates":[[[-80.677862,27.205987999999994],[-80.67982100000002,27.558469999999996],[-80.321271,27.557378000000003],[-80.311757,27.524624999999997],[-80.30117,27.500313999999996],[-80.293171,27.500313999999992],[-80.265535,27.420542],[-80.253665,27.379789999999996],[-80.233538,27.341307000000004],[-80.226753,27.322735999999995],[-80.199288,27.263021999999996],[-80.284771,27.263722999999995],[-80.28551,27.20602499999999],[-80.677862,27.205987999999994]]]}},{"type":"Feature","properties":{"name":"Sumter","fips":"12119","available":true},"geometry":{"type":"Polygon","coordinates":[[[-81.95419,28.96005299999999],[-81.95358,28.820939999999997],[-81.957641,28.345179999999996],[-82.055819,28.312793999999997],[-82.054469,28.521366999999998],[-82.208184,28.572054],[-82.263052,28.667634],[-82.170848,28.79019],[-82.311697,28.960390999999998],[-81.95419,28.96005299999999]]]}},{"type":"Feature","properties":{"name":"Union","fips":"12125","available":true},"geometry":{"type":"Polygon","coordinates":[[[-82.41872800000002,29.923093],[-82.529705,29.940881000000005],[-82.57601,29.991467999999994],[-82.458364,30.136449000000006],[-82.14257800000001,30.143117000000004],[-82.307409,29.956155999999996],[-82.41872800000002,29.923093]]]}},{"type":"Feature","properties":{"name":"Alachua","fips":"12001","available":true},"geometry":{"type":"Polygon","coordinates":[[[-82.556511,29.511982000000003],[-82.656301,29.564810999999995],[-82.658554,29.830143999999997],[-82.529705,29.940881000000005],[-82.41872800000002,29.923093],[-82.272563,29.843010999999994],[-82.133126,29.835949000000006],[-82.05562500000002,29.718232000000004],[-82.050829,29.716098],[-82.05502700000001,29.66960799999999],[-82.055899,29.471231999999997],[-82.105688,29.435965999999997],[-82.213245,29.431764000000005],[-82.22501,29.484298000000003],[-82.40662,29.485047999999995],[-82.556766,29.480054999999993],[-82.556511,29.511982000000003]]]}},{"type":"Feature","properties":{"name":"Calhoun","fips":"12013","available":true},"geometry":{"type":"Polygon","coordinates":[[[-85.389679,30.200972999999998],[-85.383948,30.566855999999998],[-85.171891,30.564335999999997],[-85.167713,30.608026000000006],[-84.932519,30.606392999999997],[-84.990017,30.524794999999994],[-84.983203,30.441837],[-85.059092,30.263228999999995],[-85.11566,30.199975999999992],[-85.389679,30.200972999999998]]]}},{"type":"Feature","properties":{"name":"Columbia","fips":"12023","available":true},"geometry":{"type":"Polygon","coordinates":[[[-82.689539,30.597733999999996],[-82.459792,30.584287],[-82.458364,30.136449000000006],[-82.57601,29.991467999999994],[-82.529705,29.940881000000005],[-82.658554,29.830143999999997],[-82.800477,29.932126000000004],[-82.794594,30.337023999999996],[-82.681473,30.342805],[-82.645768,30.407992000000004],[-82.726583,30.559485999999993],[-82.689539,30.597733999999996]]]}},{"type":"Feature","properties":{"name":"Gadsden","fips":"12039","available":true},"geometry":{"type":"Polygon","coordinates":[[[-84.864693,30.711542],[-84.535042,30.696522999999996],[-84.282562,30.685316000000004],[-84.378384,30.573467],[-84.420474,30.463905000000004],[-84.646408,30.388281000000003],[-84.781111,30.459794000000002],[-84.781813,30.518693000000006],[-84.882616,30.533094],[-84.932519,30.606392999999997],[-84.864693,30.711542]]]}},{"type":"Feature","properties":{"name":"Highlands","fips":"12055","available":true},"geometry":{"type":"Polygon","coordinates":[[[-80.943186,27.210599000000002],[-81.169138,27.209584999999997],[-81.168281,27.121734],[-81.267677,27.121097000000002],[-81.267152,27.032461],[-81.562202,27.033835999999994],[-81.563318,27.646646999999998],[-81.142164,27.643237999999997],[-81.213717,27.528653999999996],[-80.97091600000002,27.217697999999995],[-80.951656,27.224825],[-80.943186,27.210599000000002]]]}},{"type":"Feature","properties":{"name":"Holmes","fips":"12059","available":true},"geometry":{"type":"Polygon","coordinates":[[[-85.59993400000002,30.830552000000004],[-85.619011,30.743868000000006],[-85.736051,30.74637],[-85.821616,30.790775000000004],[-85.84442100000001,30.70313000000001],[-86.037591,30.70457199999999],[-86.035039,30.99332000000001],[-85.497992,30.996931],[-85.59993400000002,30.830552000000004]]]}},{"type":"Feature","properties":{"name":"Leon","fips":"12073","available":true},"geometry":{"type":"Polygon","coordinates":[[[-84.282562,30.685316000000004],[-84.007454,30.672100000000007],[-83.977165,30.521987],[-84.041192,30.483967],[-84.041488,30.463308],[-84.074691,30.434301999999995],[-84.075539,30.27361700000001],[-84.241222,30.274244],[-84.247673,30.303492999999992],[-84.713351,30.30017000000001],[-84.646408,30.388281000000003],[-84.420474,30.463905000000004],[-84.378384,30.573467],[-84.282562,30.685316000000004]]]}},{"type":"Feature","properties":{"name":"Nassau","fips":"12089","available":true},"geometry":{"type":"Polygon","coordinates":[[[-81.906014,30.822175999999995],[-81.868608,30.792754000000006],[-81.840375,30.786384],[-81.827014,30.788933000000004],[-81.806652,30.789682999999986],[-81.759338,30.771377],[-81.741278,30.76268099999999],[-81.732627,30.74993399999999],[-81.719927,30.744633999999994],[-81.637222,30.733835000000003],[-81.624298,30.736193999999998],[-81.606221,30.718135000000004],[-81.54461800000001,30.712636],[-81.444124,30.709713999999998],[-81.432725,30.703017],[-81.42742,30.698019999999993],[-81.443099,30.600937999999992],[-81.442564,30.555189],[-81.434064,30.522569000000008],[-81.442784,30.50992],[-81.499575,30.563793],[-81.543018,30.523889],[-81.624513,30.586232],[-81.72163,30.57196799999999],[-81.791665,30.505610000000004],[-82.049236,30.273432000000007],[-82.050031,30.362489999999998],[-82.016103,30.497355],[-82.01699,30.51935800000001],[-82.005477,30.563495000000003],[-82.01329,30.595665000000007],[-82.037609,30.633270999999997],[-82.049401,30.655296000000007],[-82.050432,30.676265999999988],[-82.023213,30.781987],[-81.999836,30.788348],[-81.906014,30.822175999999995]]]}},{"type":"Feature","properties":{"name":"Okaloosa","fips":"12091","available":true},"geometry":{"type":"Polygon","coordinates":[[[-86.393551,30.493444000000004],[-86.39732500000001,30.378552999999997],[-86.470849,30.3839],[-86.50615,30.382300000000004],[-86.529067,30.386896000000004],[-86.632953,30.396299000000003],[-86.750906,30.391880999999994],[-86.800283,30.386476999999992],[-86.785692,30.996976999999998],[-86.725379,30.996872000000003],[-86.678383,30.994537],[-86.563436,30.995223000000003],[-86.519938,30.993244999999995],[-86.388646,30.994180999999998],[-86.393551,30.493444000000004]]]}},{"type":"Feature","properties":{"name":"Osceola","fips":"12097","available":true},"geometry":{"type":"Polygon","coordinates":[[[-80.862908,28.347486999999997],[-80.868881,27.822522],[-80.87315,27.642288],[-81.142164,27.643237999999997],[-81.131495,27.6494],[-81.208124,27.821124999999995],[-81.301862,27.862080999999996],[-81.308696,27.92188],[-81.378718,28.011742999999996],[-81.375467,28.085100000000004],[-81.455315,28.085367],[-81.455647,28.142894000000002],[-81.524227,28.142804999999992],[-81.524083,28.201012],[-81.551345,28.249045000000002],[-81.657189,28.259217],[-81.657268,28.347097999999995],[-80.862908,28.347486999999997]]]}},{"type":"Feature","properties":{"name":"Palm Beach","fips":"12099","available":true},"geometry":{"type":"Polygon","coordinates":[[[-80.099747,26.327668],[-80.15377,26.327765999999997],[-80.296935,26.334356],[-80.881233,26.333805999999996],[-80.886099,26.725479999999994],[-80.885639,26.958919],[-80.246728,26.957189],[-80.079531,26.9705],[-80.046263,26.859237999999998],[-80.031362,26.796339],[-80.03212,26.771530000000002],[-80.036362,26.771239999999995],[-80.037462,26.76634],[-80.032862,26.715241999999996],[-80.03576300000002,26.676043],[-80.035363,26.612346],[-80.038863,26.569347000000004],[-80.060564,26.444652000000005],[-80.070564,26.336455],[-80.072264,26.335355999999997],[-80.074837,26.321032000000006],[-80.087905,26.320755999999992],[-80.088999,26.324356999999996],[-80.091929,26.326352],[-80.098268,26.322599000000007],[-80.099747,26.327668]]]}},{"type":"Feature","properties":{"name":"Pasco","fips":"12101","available":true},"geometry":{"type":"Polygon","coordinates":[[[-82.678743,28.433456],[-82.253439,28.434823999999995],[-82.253293,28.478491],[-82.054694,28.478397],[-82.055819,28.312793999999997],[-82.106206,28.25924],[-82.105853,28.17165],[-82.805097,28.17218099999999],[-82.797762,28.187789],[-82.762643,28.219013],[-82.76446,28.22006899999999],[-82.764103,28.244345000000003],[-82.759072,28.25402],[-82.746188,28.261191999999998],[-82.732792,28.291933000000004],[-82.735463,28.300390000000004],[-82.73146,28.325075],[-82.715822,28.345501],[-82.706112,28.368057],[-82.706322,28.401324999999993],[-82.697433,28.420166],[-82.684137,28.428019],[-82.678743,28.433456]]]}},{"type":"Feature","properties":{"name":"Putnam","fips":"12107","available":true},"geometry":{"type":"Polygon","coordinates":[[[-81.52523,29.759497000000003],[-81.520596,29.500249000000004],[-81.478793,29.399051999999994],[-81.433992,29.398551999999995],[-81.450892,29.378464],[-81.680903,29.324429999999992],[-81.741422,29.371049],[-81.776205,29.487448],[-81.843009,29.521003999999998],[-82.055899,29.471231999999997],[-82.05502700000001,29.66960799999999],[-82.050291,29.709735],[-82.050829,29.716098],[-82.05562500000002,29.718232000000004],[-82.049244,29.71867],[-81.939427,29.747496999999996],[-81.797218,29.836648999999994],[-81.581207,29.840175999999992],[-81.52523,29.759497000000003]]]}},{"type":"Feature","properties":{"name":"St. Johns","fips":"12109","available":true},"geometry":{"type":"Polygon","coordinates":[[[-81.623813,30.133640999999997],[-81.433737,30.106028],[-81.436929,30.252335],[-81.379879,30.252914000000004],[-81.35559100000002,30.162562999999995],[-81.308978,29.96943999999999],[-81.295268,29.928614000000007],[-81.288955,29.915180000000003],[-81.27654,29.90046],[-81.270442,29.883106],[-81.264693,29.858212000000005],[-81.263396,29.820663000000003],[-81.256711,29.784693],[-81.240924,29.739218],[-81.229015,29.714693000000004],[-81.212878,29.670667],[-81.324059,29.62561],[-81.52366,29.622431999999993],[-81.52523,29.759497000000003],[-81.581207,29.840175999999992],[-81.60099,29.956017000000003],[-81.688876,30.028566],[-81.680215,30.12124],[-81.650514,30.121540999999997],[-81.623813,30.133640999999997]]]}},{"type":"Feature","properties":{"name":"Santa Rosa","fips":"12113","available":true},"geometry":{"type":"Polygon","coordinates":[[[-86.919292,30.370675000000002],[-87.23297,30.348999000000006],[-87.1344,30.420294000000002],[-87.124968,30.500195999999992],[-87.258884,30.611280999999998],[-87.269407,30.711687],[-87.308502,30.72691],[-87.313611,30.847266000000005],[-87.286882,30.925441],[-87.163084,30.999051],[-87.03998900000002,30.999593999999984],[-86.785692,30.996976999999998],[-86.800283,30.386476999999992],[-86.850625,30.380967],[-86.919292,30.370675000000002]]]}},{"type":"Feature","properties":{"name":"Sarasota","fips":"12115","available":true},"geometry":{"type":"Polygon","coordinates":[[[-82.057469,27.032119000000005],[-82.255237,27.032974999999993],[-82.255521,26.945263999999998],[-82.375737,26.946041],[-82.400618,26.984936999999995],[-82.419218,27.020736],[-82.445718,27.060633999999993],[-82.460319,27.099933],[-82.465319,27.110732000000002],[-82.46889,27.113611999999993],[-82.477019,27.141231],[-82.512319,27.207528],[-82.539719,27.254325999999995],[-82.54512,27.261025999999994],[-82.55902,27.268825999999994],[-82.56975400000002,27.279452],[-82.569248,27.29858799999999],[-82.57602,27.309324],[-82.597629,27.335754],[-82.623863,27.362206],[-82.642837,27.389736999999997],[-82.252264,27.386243],[-82.253596,27.20891599999999],[-82.05649700000001,27.207769],[-82.057469,27.032119000000005]]]}},{"type":"Feature","properties":{"name":"Seminole","fips":"12117","available":true},"geometry":{"type":"Polygon","coordinates":[[[-81.210452,28.802453],[-81.195021,28.792302000000003],[-81.183198,28.797468],[-81.178936,28.781885999999993],[-81.10575,28.828540999999994],[-80.98725,28.612997],[-81.326991,28.610298],[-81.32865,28.639334],[-81.459501,28.640285],[-81.459695,28.644475],[-81.414446,28.784955000000004],[-81.375088,28.863365999999996],[-81.376006,28.865900999999997],[-81.373491,28.870250000000002],[-81.372009,28.869039],[-81.366705,28.873250000000006],[-81.36694,28.879227],[-81.24997,28.833105999999997],[-81.226003,28.832629999999998],[-81.222874,28.826862],[-81.224596,28.822039000000004],[-81.215898,28.814423000000005],[-81.216345,28.808301999999998],[-81.210452,28.802453]]]}},{"type":"Feature","properties":{"name":"Volusia","fips":"12127","available":true},"geometry":{"type":"Polygon","coordinates":[[[-81.178936,28.781885999999993],[-81.183198,28.797468],[-81.195021,28.792302000000003],[-81.210452,28.802453],[-81.216345,28.808301999999998],[-81.215898,28.814423000000005],[-81.224596,28.822039000000004],[-81.222874,28.826862],[-81.226003,28.832629999999998],[-81.24997,28.833105999999997],[-81.36694,28.879227],[-81.354554,28.984374999999993],[-81.502055,29.097802],[-81.531262,29.176621000000008],[-81.61234,29.202942999999998],[-81.648438,29.290173],[-81.655677,29.299940000000003],[-81.667885,29.301488000000003],[-81.675523,29.310627999999998],[-81.680903,29.324429999999992],[-81.450892,29.378464],[-81.433992,29.398551999999995],[-81.41729,29.261155999999996],[-81.150081,29.265956999999993],[-81.155881,29.410954000000004],[-81.101923,29.427055],[-81.046678,29.307856000000005],[-80.966176,29.14796],[-80.944376,29.110861000000003],[-80.907275,29.064262000000006],[-80.893675,29.036163],[-80.878275,29.010563],[-80.732244,28.79123700000001],[-80.967895,28.790197000000006],[-80.964466,28.612992],[-80.98725,28.612997],[-81.10575,28.828540999999994],[-81.178936,28.781885999999993]]]}},{"type":"Feature","properties":{"name":"Walton","fips":"12131","available":true},"geometry":{"type":"Polygon","coordinates":[[[-85.992736,30.389319999999994],[-85.996083,30.269148],[-86.089963,30.303569],[-86.222561,30.343584999999997],[-86.2987,30.363048999999997],[-86.364175,30.374524],[-86.39732500000001,30.378552999999997],[-86.393551,30.493444000000004],[-86.388646,30.994180999999998],[-86.035039,30.99332000000001],[-86.037591,30.70457199999999],[-85.84442100000001,30.70313000000001],[-85.91529700000001,30.636426999999998],[-85.858001,30.496904999999995],[-85.992736,30.389319999999994]]]}},{"type":"Feature","properties":{"name":"Baker","fips":"12003","available":true},"geometry":{"type":"Polygon","coordinates":[[[-82.050031,30.362489999999998],[-82.049425,30.14313599999999],[-82.14257800000001,30.143117000000004],[-82.458364,30.136449000000006],[-82.459792,30.584287],[-82.2581,30.571559],[-82.214385,30.566958],[-82.21233,30.499558],[-82.20604,30.45550699999999],[-82.210291,30.42458999999999],[-82.204151,30.40133],[-82.189583,30.376213],[-82.171508,30.359868999999993],[-82.16519200000002,30.358035000000005],[-82.124835,30.366564],[-82.050031,30.362489999999998]]]}},{"type":"Feature","properties":{"name":"Bay","fips":"12005","available":true},"geometry":{"type":"Polygon","coordinates":[[[-85.996083,30.269148],[-85.992736,30.389319999999994],[-85.8535,30.440623],[-85.487968,30.43665500000001],[-85.486358,30.567573999999993],[-85.383948,30.566855999999998],[-85.389679,30.200972999999998],[-85.388677,29.924354999999995],[-85.405052,29.938487],[-85.425956,29.949888000000005],[-85.460488,29.95957899999999],[-85.469425,29.957788],[-85.487764,29.961227000000004],[-85.509148,29.971466000000007],[-85.541176,29.995790999999997],[-85.571907,30.026440000000004],[-85.58139,30.037783],[-85.588242,30.055542999999993],[-85.601178,30.056342],[-85.618254,30.065481],[-85.653251,30.07783900000001],[-85.69681000000001,30.09688999999999],[-85.730054,30.118152999999996],[-85.74993,30.136536999999997],[-85.775405,30.15629],[-85.811219,30.178319999999992],[-85.878138,30.215618999999997],[-85.9226,30.238024],[-85.996083,30.269148]]]}},{"type":"Feature","properties":{"name":"Broward","fips":"12011","available":true},"geometry":{"type":"Polygon","coordinates":[[[-80.117798,25.975152],[-80.295187,25.970569999999995],[-80.29497200000002,25.956769999999995],[-80.680016,25.956857],[-80.680038,25.978749],[-80.872932,25.979434],[-80.881233,26.333805999999996],[-80.296935,26.334356],[-80.15377,26.327765999999997],[-80.099747,26.327668],[-80.098268,26.322599000000007],[-80.091929,26.326352],[-80.088999,26.324356999999996],[-80.087905,26.320755999999992],[-80.074837,26.321032000000006],[-80.079865,26.264358],[-80.085565,26.249259],[-80.089365,26.231858999999996],[-80.101366,26.147761999999997],[-80.105266,26.096264000000005],[-80.109566,26.087165],[-80.117798,25.975152]]]}},{"type":"Feature","properties":{"name":"Charlotte","fips":"12015","available":true},"geometry":{"type":"Polygon","coordinates":[[[-82.375737,26.946041],[-82.255521,26.945263999999998],[-82.255237,27.032974999999993],[-82.057469,27.032119000000005],[-81.562202,27.033835999999994],[-81.565931,26.769551999999997],[-82.062029,26.770439000000003],[-82.061401,26.789228],[-82.055076,26.802452],[-82.057951,26.822],[-82.056801,26.858797],[-82.059101,26.876621],[-82.066575,26.88237],[-82.09072300000001,26.888694000000005],[-82.093023,26.90651799999999],[-82.090148,26.923191],[-82.083249,26.927790999999996],[-82.067725,26.927790999999996],[-82.061976,26.931240999999996],[-82.06312600000001,26.950214000000006],[-82.076349,26.958262999999995],[-82.107972,26.957688],[-82.117171,26.954239],[-82.13729400000001,26.926066],[-82.162017,26.925490999999997],[-82.16949100000001,26.923191000000003],[-82.175241,26.916867],[-82.172941,26.897318999999996],[-82.156267,26.851898],[-82.147068,26.789802999999996],[-82.151093,26.783479000000007],[-82.172941,26.778878999999996],[-82.17869,26.772555],[-82.221812,26.771979999999996],[-82.233311,26.784053999999994],[-82.241935,26.774278999999993],[-82.251134,26.755881],[-82.259867,26.71739799999999],[-82.26380400000001,26.725643999999996],[-82.264682,26.756836000000003],[-82.269499,26.784673999999995],[-82.289086,26.827784],[-82.301736,26.841587999999998],[-82.351649,26.908383999999995],[-82.375737,26.946041]]]}},{"type":"Feature","properties":{"name":"Lee","fips":"12071","available":true},"geometry":{"type":"MultiPolygon","coordinates":[[[[-82.255777,26.703437000000005],[-82.255159,26.70816],[-82.246535,26.706434999999995],[-82.24251,26.694360999999997],[-82.24596,26.688611999999996],[-82.246535,26.683437],[-82.23744,26.661975999999996],[-82.218342,26.626406999999997],[-82.214337,26.602944],[-82.196514,26.559822999999998],[-82.187315,26.527626000000005],[-82.17754100000002,26.502327999999995],[-82.166042,26.48967899999999],[-82.149368,26.477605000000004],[-82.131545,26.47703],[-82.120046,26.473581000000003],[-82.088423,26.455181999999997],[-82.076924,26.466106],[-82.062551,26.47013099999999],[-82.038403,26.456906999999994],[-82.015607,26.454858000000005],[-82.013713,26.454257999999996],[-82.013913,26.452058],[-82.063114,26.425458999999996],[-82.075015,26.422059],[-82.082915,26.422058999999997],[-82.098115,26.424958999999998],[-82.126671,26.436279],[-82.148716,26.455458000000004],[-82.172917,26.467657999999997],[-82.17701700000002,26.471557999999998],[-82.186441,26.489220999999993],[-82.201402,26.556309999999996],[-82.205523,26.566536],[-82.222131,26.590401999999997],[-82.238872,26.636432999999997],[-82.248659,26.654337],[-82.26800700000001,26.682790999999998],[-82.264351,26.698496],[-82.255777,26.703437000000005]]],[[[-81.690494,26.317333999999995],[-81.845834,26.330378],[-81.868983,26.378647999999995],[-81.90191,26.410858999999995],[-81.90271,26.416158999999997],[-81.91171,26.427158],[-81.923611,26.436658],[-81.938411,26.445057999999996],[-81.956611,26.45235799999999],[-81.964212,26.457957000000004],[-81.967112,26.462856999999996],[-81.966212,26.465056999999998],[-81.969509,26.476505],[-81.99701200000001,26.484855999999994],[-82.008961,26.484051999999995],[-82.01368,26.490829],[-82.00908,26.505203],[-82.024604,26.512677],[-82.043577,26.519576999999995],[-82.06715,26.513252],[-82.07175,26.492554],[-82.094748,26.483930000000004],[-82.105672,26.483930000000004],[-82.111996,26.54085],[-82.118896,26.560973],[-82.137869,26.637440999999992],[-82.149943,26.654114999999994],[-82.181565,26.681711999999994],[-82.17984000000001,26.69666099999999],[-82.173516,26.701836000000004],[-82.151668,26.704135999999995],[-82.125795,26.699536],[-82.118896,26.690912],[-82.106247,26.667339000000002],[-82.099922,26.662739],[-82.093023,26.665614],[-82.086698,26.685161999999995],[-82.084974,26.702411],[-82.079799,26.716783999999993],[-82.066575,26.742657000000005],[-82.062029,26.770439000000003],[-81.565931,26.769551999999997],[-81.56218,26.422625000000004],[-81.659506,26.421077],[-81.690494,26.317333999999995]]]]}},{"type":"Feature","properties":{"name":"Madison","fips":"12079","available":true},"geometry":{"type":"Polygon","coordinates":[[[-83.309455,30.634417],[-83.272612,30.627687000000005],[-83.243766,30.473132],[-83.17096900000001,30.38522499999999],[-83.247253,30.260670000000005],[-83.469267,30.260351000000004],[-83.468768,30.304211999999993],[-83.820235,30.30354],[-83.806667,30.371689],[-83.72172,30.434353999999992],[-83.731107,30.492314999999998],[-83.604186,30.581915999999993],[-83.61172,30.651257999999995],[-83.309455,30.634417]]]}},{"type":"Feature","properties":{"name":"Manatee","fips":"12081","available":true},"geometry":{"type":"Polygon","coordinates":[[[-82.642837,27.389736999999997],[-82.675121,27.424318],[-82.691821,27.437217999999998],[-82.691004,27.444331000000002],[-82.707821,27.487614999999995],[-82.714521,27.500415],[-82.724522,27.513613999999997],[-82.743017,27.531086],[-82.745748,27.538834],[-82.742437,27.53936],[-82.708121,27.523513999999995],[-82.710621,27.501715],[-82.706821,27.498414999999998],[-82.686421,27.497214999999997],[-82.686921,27.508015],[-82.683621,27.513114999999996],[-82.674621,27.519613999999994],[-82.66202,27.522814],[-82.65072,27.523114999999994],[-82.646014,27.533539999999995],[-82.632053,27.551907999999997],[-82.612019,27.571231],[-82.613003,27.582837],[-82.611717,27.585283000000004],[-82.596488,27.594045],[-82.584629,27.596021],[-82.570607,27.608881999999998],[-82.565667,27.615713],[-82.558538,27.638677999999995],[-82.554499,27.645144999999996],[-82.054349,27.646382],[-82.05649700000001,27.207769],[-82.253596,27.20891599999999],[-82.252264,27.386243],[-82.642837,27.389736999999997]]]}},{"type":"Feature","properties":{"name":"Citrus","fips":"12017","available":true},"geometry":{"type":"Polygon","coordinates":[[[-82.535591,29.04485499999999],[-82.426997,29.021384999999995],[-82.311697,28.960390999999998],[-82.170848,28.79019],[-82.263052,28.667634],[-82.417684,28.665897],[-82.418353,28.694858999999997],[-82.646411,28.694433999999998],[-82.645482,28.697553000000003],[-82.652926,28.705618],[-82.656028,28.712442999999993],[-82.652926,28.719267],[-82.656028,28.727952000000005],[-82.662232,28.737257999999997],[-82.651065,28.747183999999997],[-82.645482,28.76703699999999],[-82.643,28.789991],[-82.648584,28.796194999999994],[-82.652926,28.830935999999994],[-82.638657,28.84334399999999],[-82.643,28.860094],[-82.639898,28.876224000000004],[-82.644861,28.889251999999995],[-82.656028,28.899179],[-82.673399,28.900419],[-82.688864,28.905609],[-82.702618,28.932955],[-82.708793,28.935979000000003],[-82.72386100000001,28.953505999999994],[-82.735754,28.973709000000007],[-82.737872,28.995702999999995],[-82.758906,28.993276999999996],[-82.689814,29.033962],[-82.612653,29.009270999999995],[-82.535591,29.04485499999999]]]}},{"type":"Feature","properties":{"name":"Dixie","fips":"12029","available":true},"geometry":{"type":"Polygon","coordinates":[[[-83.412278,29.666921999999996],[-83.373351,29.665951],[-83.318859,29.822623000000004],[-82.920608,29.824143],[-82.949707,29.754408999999992],[-82.937374,29.591312000000002],[-82.984371,29.471004],[-83.068522,29.343953000000003],[-83.166091,29.288880000000002],[-83.169576,29.290355],[-83.176736,29.314219999999995],[-83.17826,29.32791599999999],[-83.17551800000001,29.344690000000003],[-83.189581,29.363417],[-83.200702,29.373855],[-83.202446,29.394421999999988],[-83.218075,29.420492],[-83.240509,29.433177999999998],[-83.263965,29.435806000000007],[-83.272019,29.432255999999995],[-83.294747,29.437923],[-83.307094,29.459651],[-83.30782800000001,29.468861],[-83.311546,29.475665999999997],[-83.323214,29.476789],[-83.33113,29.475594],[-83.350067,29.489357999999996],[-83.356722,29.499901000000005],[-83.370288,29.499901000000005],[-83.379254,29.503558],[-83.383973,29.512995000000007],[-83.400252,29.517242],[-83.401552,29.523291000000008],[-83.39983,29.533042000000002],[-83.405256,29.578319],[-83.405068,29.59557],[-83.39948,29.612956],[-83.404081,29.640798],[-83.412278,29.666921999999996]]]}},{"type":"Feature","properties":{"name":"Duval","fips":"12031","available":true},"geometry":{"type":"Polygon","coordinates":[[[-82.049236,30.273432000000007],[-81.791665,30.505610000000004],[-81.72163,30.57196799999999],[-81.624513,30.586232],[-81.543018,30.523889],[-81.499575,30.563793],[-81.442784,30.50992],[-81.447087,30.503679000000005],[-81.440108,30.497677999999997],[-81.42601,30.496739000000005],[-81.410809,30.482039000000004],[-81.407008,30.42204],[-81.397422,30.400626],[-81.39640700000001,30.340039999999995],[-81.391606,30.303440999999992],[-81.379879,30.252914000000004],[-81.436929,30.252335],[-81.433737,30.106028],[-81.623813,30.133640999999997],[-81.650514,30.121540999999997],[-81.680215,30.12124],[-81.711348,30.191192999999988],[-82.049411,30.186932999999996],[-82.049236,30.273432000000007]]]}},{"type":"Feature","properties":{"name":"Gilchrist","fips":"12041","available":true},"geometry":{"type":"Polygon","coordinates":[[[-82.658554,29.830143999999997],[-82.656301,29.564810999999995],[-82.937374,29.591312000000002],[-82.949707,29.754408999999992],[-82.920608,29.824143],[-82.89287200000001,29.82745999999999],[-82.875616,29.866527],[-82.879802,29.88684700000001],[-82.864246,29.909836],[-82.800477,29.932126000000004],[-82.658554,29.830143999999997]]]}},{"type":"Feature","properties":{"name":"Glades","fips":"12043","available":true},"geometry":{"type":"Polygon","coordinates":[[[-80.943186,27.210599000000002],[-80.871169,27.154950999999997],[-80.885639,26.958919],[-80.945354,26.769049],[-81.565931,26.769551999999997],[-81.562202,27.033835999999994],[-81.267152,27.032461],[-81.267677,27.121097000000002],[-81.168281,27.121734],[-81.169138,27.209584999999997],[-80.943186,27.210599000000002]]]}},{"type":"Feature","properties":{"name":"Gulf","fips":"12045","available":true},"geometry":{"type":"Polygon","coordinates":[[[-85.11566,30.199975999999992],[-85.153773,30.091294],[-85.113691,30.023173],[-85.025439,29.971399000000005],[-85.012191,29.873166999999995],[-85.040078,29.779345999999997],[-85.109401,29.776792999999994],[-85.217355,29.694953],[-85.22745,29.693632999999995],[-85.259719,29.681295999999996],[-85.29074,29.684080999999992],[-85.319215,29.681494000000008],[-85.343619,29.67200399999999],[-85.347711,29.66719000000001],[-85.344768,29.654793],[-85.352615,29.65978700000001],[-85.369419,29.681048],[-85.380303,29.698484999999994],[-85.397871,29.740498],[-85.413983,29.799864999999997],[-85.417971,29.828855000000004],[-85.413575,29.852940000000004],[-85.405815,29.865817],[-85.392469,29.870913999999996],[-85.39874000000002,29.859266999999996],[-85.405011,29.830151],[-85.405907,29.801930000000002],[-85.395528,29.762368],[-85.37796,29.709621],[-85.353885,29.68476499999999],[-85.344986,29.685015000000007],[-85.317661,29.691286],[-85.31139,29.697557],[-85.301331,29.797116999999997],[-85.302591,29.808093999999997],[-85.31142,29.814373],[-85.314547,29.822279],[-85.314783,29.830575],[-85.312911,29.832273],[-85.31746400000002,29.838893999999993],[-85.32500800000001,29.844966],[-85.332289,29.845904999999984],[-85.336654,29.849294999999998],[-85.347044,29.871981],[-85.363731,29.898915000000002],[-85.388677,29.924354999999995],[-85.389679,30.200972999999998],[-85.11566,30.199975999999992]]]}},{"type":"Feature","properties":{"name":"Hardee","fips":"12049","available":true},"geometry":{"type":"Polygon","coordinates":[[[-82.054349,27.646382],[-81.563318,27.646646999999998],[-81.563696,27.34068],[-82.055753,27.338264],[-82.054349,27.646382]]]}},{"type":"Feature","properties":{"name":"Hendry","fips":"12051","available":true},"geometry":{"type":"Polygon","coordinates":[[[-80.879809,26.259455],[-81.26855,26.253044999999997],[-81.27176800000001,26.517068999999992],[-81.563763,26.513324000000004],[-81.565931,26.769551999999997],[-80.945354,26.769049],[-80.885639,26.958919],[-80.886099,26.725479999999994],[-80.879809,26.259455]]]}},{"type":"Feature","properties":{"name":"Hernando","fips":"12053","available":true},"geometry":{"type":"Polygon","coordinates":[[[-82.054694,28.478397],[-82.253293,28.478491],[-82.253439,28.434823999999995],[-82.678743,28.433456],[-82.674787,28.441955999999994],[-82.680396,28.457193999999994],[-82.67241,28.464746000000005],[-82.66447,28.488787999999996],[-82.66639,28.49733000000001],[-82.670146,28.500768999999995],[-82.66804,28.528198999999997],[-82.663705,28.530192999999993],[-82.656694,28.544813999999995],[-82.661729,28.549742999999996],[-82.66165,28.554143],[-82.65705,28.568028],[-82.654138,28.590837],[-82.664055,28.606584],[-82.656649,28.623726999999995],[-82.65851,28.636756],[-82.654167,28.668395],[-82.646411,28.694433999999998],[-82.418353,28.694858999999997],[-82.417684,28.665897],[-82.263052,28.667634],[-82.208184,28.572054],[-82.054469,28.521366999999998],[-82.054694,28.478397]]]}},{"type":"Feature","properties":{"name":"Indian River","fips":"12061","available":true},"geometry":{"type":"Polygon","coordinates":[[[-80.868881,27.822522],[-80.509075,27.822057999999995],[-80.447084,27.860754999999997],[-80.383695,27.740044999999995],[-80.351717,27.642623000000004],[-80.350553,27.628361000000005],[-80.34437,27.616226],[-80.330956,27.597541000000003],[-80.321271,27.557378000000003],[-80.777166,27.558733],[-80.778047,27.643194999999995],[-80.87315,27.642288],[-80.868881,27.822522]]]}},{"type":"Feature","properties":{"name":"Jackson","fips":"12063","available":true},"geometry":{"type":"Polygon","coordinates":[[[-85.154452,31.000835],[-85.002368,31.000681999999987],[-84.998628,30.971386],[-84.983527,30.935485999999997],[-84.959626,30.910586999999992],[-84.941925,30.887988000000007],[-84.896122,30.750591000000004],[-84.864693,30.711542],[-84.932519,30.606392999999997],[-85.167713,30.608026000000006],[-85.171891,30.564335999999997],[-85.434782,30.567560000000007],[-85.432274,30.785456999999994],[-85.482276,30.829509],[-85.59993400000002,30.830552000000004],[-85.497992,30.996931],[-85.154452,31.000835]]]}},{"type":"Feature","properties":{"name":"Lake","fips":"12069","available":true},"geometry":{"type":"Polygon","coordinates":[[[-81.657268,28.347097999999995],[-81.818903,28.361711999999994],[-81.957641,28.345179999999996],[-81.95358,28.820939999999997],[-81.95419,28.96005299999999],[-81.658698,28.960344999999997],[-81.639151,29.062879999999993],[-81.641916,29.276765999999995],[-81.61234,29.202942999999998],[-81.531262,29.176621000000008],[-81.502055,29.097802],[-81.354554,28.984374999999993],[-81.367052,28.878315],[-81.366158,28.874744000000003],[-81.372009,28.869039],[-81.373491,28.870250000000002],[-81.376006,28.865900999999997],[-81.375088,28.863365999999996],[-81.414446,28.784955000000004],[-81.624731,28.78592699999999],[-81.658114,28.682709999999993],[-81.657268,28.347097999999995]]]}},{"type":"Feature","properties":{"name":"Wakulla","fips":"12129","available":true},"geometry":{"type":"Polygon","coordinates":[[[-84.075539,30.27361700000001],[-84.076043,30.095463999999996],[-84.083057,30.092286000000005],[-84.094725,30.094963999999997],[-84.10273,30.093610999999996],[-84.11384,30.085478],[-84.124889,30.090601000000003],[-84.135683,30.083018],[-84.157278,30.072714],[-84.167881,30.071422],[-84.179149,30.073187],[-84.19853,30.087937000000004],[-84.20801,30.08477600000001],[-84.237014,30.08556],[-84.245668,30.093021000000004],[-84.24749100000001,30.101139999999994],[-84.256439,30.103790999999987],[-84.269363,30.097659999999994],[-84.272511,30.092358000000004],[-84.274003,30.083079000000005],[-84.270368,30.075468999999984],[-84.270792,30.068093999999988],[-84.277168,30.060262999999985],[-84.289727,30.057197],[-84.297836,30.05745100000001],[-84.315344,30.069492],[-84.342022,30.063858],[-84.358923,30.058224],[-84.365882,30.024588],[-84.361962,29.987738999999994],[-84.359986,29.984739000000005],[-84.3477,29.984122999999993],[-84.343041,29.975099999999994],[-84.341261,29.960775000000005],[-84.54445,30.011029999999998],[-84.669258,30.1252],[-84.713351,30.30017000000001],[-84.247673,30.303492999999992],[-84.241222,30.274244],[-84.075539,30.27361700000001]]]}},{"type":"Feature","properties":{"name":"Martin","fips":"12085","available":true},"geometry":{"type":"Polygon","coordinates":[[[-80.246728,26.957189],[-80.885639,26.958919],[-80.677427,27.121619],[-80.677862,27.205987999999994],[-80.28551,27.20602499999999],[-80.284771,27.263722999999995],[-80.199288,27.263021999999996],[-80.16147,27.192814],[-80.153375,27.169307999999997],[-80.159554,27.163325],[-80.14982,27.143556999999994],[-80.138605,27.111516999999996],[-80.116772,27.072397000000002],[-80.09390900000001,27.018586999999993],[-80.079531,26.9705],[-80.246728,26.957189]]]}},{"type":"Feature","properties":{"name":"Okeechobee","fips":"12093","available":true},"geometry":{"type":"Polygon","coordinates":[[[-80.67982100000002,27.558469999999996],[-80.677427,27.121619],[-80.885639,26.958919],[-80.871169,27.154950999999997],[-80.943186,27.210599000000002],[-80.951656,27.224825],[-80.97091600000002,27.217697999999995],[-81.213717,27.528653999999996],[-81.142164,27.643237999999997],[-80.778047,27.643194999999995],[-80.777166,27.558733],[-80.67982100000002,27.558469999999996]]]}},{"type":"Feature","properties":{"name":"Polk","fips":"12105","available":true},"geometry":{"type":"Polygon","coordinates":[[[-81.818903,28.361711999999994],[-81.657268,28.347097999999995],[-81.657189,28.259217],[-81.551345,28.249045000000002],[-81.524083,28.201012],[-81.524227,28.142804999999992],[-81.455647,28.142894000000002],[-81.455315,28.085367],[-81.375467,28.085100000000004],[-81.378718,28.011742999999996],[-81.308696,27.92188],[-81.301862,27.862080999999996],[-81.208124,27.821124999999995],[-81.131495,27.6494],[-81.142164,27.643237999999997],[-81.563318,27.646646999999998],[-82.054349,27.646382],[-82.056261,28.171592],[-82.105853,28.17165],[-82.106206,28.25924],[-82.055819,28.312793999999997],[-81.957641,28.345179999999996],[-81.818903,28.361711999999994]]]}},{"type":"Feature","properties":{"name":"Suwannee","fips":"12121","available":true},"geometry":{"type":"Polygon","coordinates":[[[-83.247253,30.260670000000005],[-83.17096900000001,30.38522499999999],[-83.078706,30.43811599999999],[-83.002058,30.429371000000003],[-82.794594,30.337023999999996],[-82.800477,29.932126000000004],[-82.864246,29.909836],[-82.879802,29.88684700000001],[-82.963112,29.993050000000004],[-83.160557,30.109823],[-83.22636,30.114621000000007],[-83.247253,30.260670000000005]]]}},{"type":"Feature","properties":{"name":"Washington","fips":"12133","available":true},"geometry":{"type":"Polygon","coordinates":[[[-85.434782,30.567560000000007],[-85.486358,30.567573999999993],[-85.487968,30.43665500000001],[-85.8535,30.440623],[-85.992736,30.389319999999994],[-85.858001,30.496904999999995],[-85.91529700000001,30.636426999999998],[-85.84442100000001,30.70313000000001],[-85.821616,30.790775000000004],[-85.736051,30.74637],[-85.619011,30.743868000000006],[-85.59993400000002,30.830552000000004],[-85.482276,30.829509],[-85.432274,30.785456999999994],[-85.434782,30.567560000000007]]]}},{"type":"Feature","properties":{"name":"Bradford","fips":"12007","available":true},"geometry":{"type":"Polygon","coordinates":[[[-82.049244,29.71867],[-82.05562500000002,29.718232000000004],[-82.133126,29.835949000000006],[-82.272563,29.843010999999994],[-82.41872800000002,29.923093],[-82.307409,29.956155999999996],[-82.14257800000001,30.143117000000004],[-82.049425,30.14313599999999],[-82.046112,29.747129000000005],[-82.049244,29.71867]]]}},{"type":"Feature","properties":{"name":"Clay","fips":"12019","available":true},"geometry":{"type":"Polygon","coordinates":[[[-82.049411,30.186932999999996],[-81.711348,30.191192999999988],[-81.680215,30.12124],[-81.688876,30.028566],[-81.60099,29.956017000000003],[-81.581207,29.840175999999992],[-81.797218,29.836648999999994],[-81.939427,29.747496999999996],[-82.049244,29.71867],[-82.046112,29.747129000000005],[-82.049411,30.186932999999996]]]}},{"type":"Feature","properties":{"name":"DeSoto","fips":"12027","available":true},"geometry":{"type":"Polygon","coordinates":[[[-82.057469,27.032119000000005],[-82.055753,27.338264],[-81.563696,27.34068],[-81.562202,27.033835999999994],[-82.057469,27.032119000000005]]]}},{"type":"Feature","properties":{"name":"Flagler","fips":"12035","available":true},"geometry":{"type":"Polygon","coordinates":[[[-81.212878,29.670667],[-81.163581,29.555289999999996],[-81.101923,29.427055],[-81.155881,29.410954000000004],[-81.150081,29.265956999999993],[-81.41729,29.261155999999996],[-81.433992,29.398551999999995],[-81.478793,29.399051999999994],[-81.520596,29.500249000000004],[-81.52366,29.622431999999993],[-81.324059,29.62561],[-81.212878,29.670667]]]}},{"type":"Feature","properties":{"name":"Hamilton","fips":"12047","available":true},"geometry":{"type":"Polygon","coordinates":[[[-83.30925,30.634405000000005],[-82.689539,30.597733999999996],[-82.726583,30.559485999999993],[-82.645768,30.407992000000004],[-82.681473,30.342805],[-82.794594,30.337023999999996],[-83.002058,30.429371000000003],[-83.078706,30.43811599999999],[-83.17096900000001,30.38522499999999],[-83.243766,30.473132],[-83.272612,30.627687000000005],[-83.30925,30.634405000000005]]]}},{"type":"Feature","properties":{"name":"Lafayette","fips":"12067","available":true},"geometry":{"type":"Polygon","coordinates":[[[-83.36726,30.26044],[-83.247253,30.260670000000005],[-83.22636,30.114621000000007],[-83.160557,30.109823],[-82.963112,29.993050000000004],[-82.879802,29.88684700000001],[-82.875616,29.866527],[-82.89287200000001,29.82745999999999],[-82.920608,29.824143],[-83.318859,29.822623000000004],[-83.37089,29.887934000000005],[-83.36726,30.26044]]]}},{"type":"Feature","properties":{"name":"Liberty","fips":"12077","available":true},"geometry":{"type":"Polygon","coordinates":[[[-84.54445,30.011029999999998],[-85.007626,30.013882999999996],[-85.025439,29.971399000000005],[-85.113691,30.023173],[-85.153773,30.091294],[-85.11566,30.199975999999992],[-85.059092,30.263228999999995],[-84.983203,30.441837],[-84.990017,30.524794999999994],[-84.932519,30.606392999999997],[-84.882616,30.533094],[-84.781813,30.518693000000006],[-84.781111,30.459794000000002],[-84.646408,30.388281000000003],[-84.713351,30.30017000000001],[-84.669258,30.1252],[-84.54445,30.011029999999998]]]}},{"type":"Feature","properties":{"name":"Miami-Dade","fips":"12086","available":true},"geometry":{"type":"Polygon","coordinates":[[[-80.680016,25.956857],[-80.29497200000002,25.956769999999995],[-80.295187,25.970569999999995],[-80.117798,25.975152],[-80.117904,25.915771999999993],[-80.12087,25.883151999999995],[-80.119684,25.841043],[-80.122056,25.817912999999997],[-80.127394,25.791224],[-80.127987,25.772245],[-80.137476,25.750301],[-80.144,25.740812000000002],[-80.152896,25.702855],[-80.15408200000002,25.683282999999996],[-80.152303,25.676759],[-80.154972,25.66548999999999],[-80.160903,25.664896999999996],[-80.176916,25.685062],[-80.170392,25.710565],[-80.164461,25.721833],[-80.166241,25.728949999999998],[-80.172765,25.737847],[-80.184626,25.745557],[-80.197674,25.74437],[-80.229107,25.732508999999993],[-80.240376,25.724206],[-80.244528,25.717089],[-80.250459,25.688027999999996],[-80.265879,25.658372999999994],[-80.267065,25.651849],[-80.277147,25.637021999999995],[-80.288416,25.630498000000003],[-80.296719,25.622195],[-80.301464,25.613299],[-80.305615,25.593134],[-80.305615,25.575341999999996],[-80.302057,25.567632],[-80.313918,25.539163999999996],[-80.328746,25.53264],[-80.339421,25.499427],[-80.339421,25.478669],[-80.33704900000001,25.465620999999995],[-80.328152,25.443083999999995],[-80.320442,25.437153],[-80.326373,25.422919],[-80.32578,25.39801],[-80.320442,25.391485999999997],[-80.31036,25.389707],[-80.306801,25.384368999999996],[-80.31036,25.373100000000004],[-80.335269,25.338700999999997],[-80.35246900000001,25.329805],[-80.361662,25.327432999999992],[-80.374116,25.317349999999994],[-80.383013,25.301336999999997],[-80.385978,25.288288999999995],[-80.419191,25.26338],[-80.447066,25.24796],[-80.467824,25.232539999999997],[-80.483244,25.216525999999998],[-80.488035,25.206942000000005],[-80.495341,25.199462999999998],[-80.508113,25.206718999999996],[-80.512928,25.216719],[-80.520359,25.220788],[-80.530207,25.216206999999994],[-80.540947,25.218209999999996],[-80.540765,25.229678000000003],[-80.548491,25.236535],[-80.558223,25.239012],[-80.570785,25.239366],[-80.589186,25.223796],[-80.587593,25.20769499999999],[-80.584771,25.200665],[-80.609607,25.181902],[-80.619024,25.177327999999996],[-80.640275,25.176619999999996],[-80.645822,25.174028999999994],[-80.649251,25.168708],[-80.683909,25.166490999999997],[-80.688361,25.164710999999997],[-80.695038,25.157588],[-80.703718,25.139114999999997],[-80.715099,25.140871999999995],[-80.721886,25.145101],[-80.742877,25.142645999999996],[-80.746379,25.148559],[-80.746264,25.155303],[-80.75186600000002,25.163761999999995],[-80.757581,25.166733999999998],[-80.796219,25.172449999999998],[-80.82653,25.160477999999998],[-80.830034,25.168094],[-80.838227,25.174791],[-80.846395,25.177059999999997],[-80.858167,25.176575999999997],[-80.87319,25.363992999999997],[-80.872932,25.979434],[-80.680038,25.978749],[-80.680016,25.956857]]]}},{"type":"Feature","properties":{"name":"Pinellas","fips":"12103","available":true},"geometry":{"type":"MultiPolygon","coordinates":[[[[-82.821585,27.964443],[-82.829801,27.968468999999992],[-82.828625,28.019795],[-82.823025,28.030695000000005],[-82.823063,28.044758],[-82.836326,28.073192999999996],[-82.830525,28.085293000000004],[-82.826125,28.083793000000004],[-82.813435,28.037159999999993],[-82.815168,28.012546999999998],[-82.821408,28.008387],[-82.821755,28.002494000000002],[-82.817248,27.992094000000005],[-82.815168,27.973721],[-82.821585,27.964443]]],[[[-82.677321,27.706207],[-82.679251,27.694665000000004],[-82.693748,27.700217],[-82.713629,27.698661],[-82.718822,27.692007],[-82.723022,27.671207999999996],[-82.721622,27.663908],[-82.712555,27.646647],[-82.698091,27.638858],[-82.705017,27.62531],[-82.733076,27.612971999999996],[-82.73655200000002,27.617326000000002],[-82.739122,27.63690899999999],[-82.738022,27.706807],[-82.74032300000002,27.718205999999995],[-82.746223,27.731305999999993],[-82.753723,27.736306],[-82.760923,27.745204999999995],[-82.770023,27.767903999999998],[-82.783124,27.783803999999996],[-82.790224,27.791603000000002],[-82.820433,27.813741999999998],[-82.828561,27.822254000000004],[-82.846526,27.854301000000003],[-82.849126,27.863200000000006],[-82.851126,27.8863],[-82.847826,27.91019899999999],[-82.84088200000001,27.937161999999994],[-82.831388,27.962117000000003],[-82.824875,27.960201],[-82.821975,27.956868],[-82.838484,27.909110999999996],[-82.832155,27.909242],[-82.820715,27.927268],[-82.805462,27.960201000000005],[-82.792635,28.01116],[-82.792635,28.032306999999996],[-82.782724,28.055894000000002],[-82.783824,28.106292000000003],[-82.781324,28.127590999999995],[-82.790724,28.152489999999997],[-82.79902400000002,28.151789999999995],[-82.808474,28.154803000000005],[-82.805097,28.17218099999999],[-82.651165,28.173266],[-82.648616,27.966309000000003],[-82.716522,27.958398],[-82.72052200000002,27.955798],[-82.724122,27.948098000000005],[-82.720122,27.936398999999998],[-82.710022,27.928299],[-82.691621,27.924899],[-82.685121,27.916298999999995],[-82.671221,27.913000000000004],[-82.628063,27.910396999999996],[-82.63422,27.9037],[-82.63212,27.8911],[-82.61002,27.87350099999999],[-82.567919,27.883700999999995],[-82.566819,27.858002],[-82.598443,27.857581999999994],[-82.594819,27.843402],[-82.589319,27.835702000000005],[-82.586519,27.816702999999997],[-82.60742,27.798903999999997],[-82.622723,27.779868],[-82.63052,27.75390499999999],[-82.62502,27.732706],[-82.62572,27.727006000000003],[-82.63362000000001,27.710607000000003],[-82.63982,27.703907000000005],[-82.652521,27.700307],[-82.677321,27.706207]]]]}},{"type":"Feature","properties":{"name":"Taylor","fips":"12123","available":true},"geometry":{"type":"Polygon","coordinates":[[[-83.915533,30.245386000000007],[-83.829465,30.287862999999998],[-83.820235,30.30354],[-83.468768,30.304211999999993],[-83.469267,30.260351000000004],[-83.36726,30.26044],[-83.37089,29.887934000000005],[-83.318859,29.822623000000004],[-83.373351,29.665951],[-83.412278,29.666921999999996],[-83.414701,29.670535999999995],[-83.436259,29.677388999999998],[-83.444635,29.677155000000003],[-83.448194,29.675254],[-83.455356,29.676444000000004],[-83.483143,29.69047799999999],[-83.483567,29.698542000000003],[-83.493728,29.708388000000003],[-83.512716,29.716480000000004],[-83.537645,29.723060000000004],[-83.55499300000001,29.742600000000003],[-83.566018,29.761434],[-83.578955,29.768378],[-83.584716,29.776080000000007],[-83.586089,29.784644000000004],[-83.583045,29.78730699999999],[-83.581903,29.792063],[-83.585899,29.811753999999997],[-83.595493,29.827984],[-83.605244,29.836386999999995],[-83.618568,29.842336000000003],[-83.63798,29.886072999999993],[-83.659951,29.899523999999992],[-83.686423,29.923735],[-83.757249,29.957943000000007],[-83.788729,29.976982],[-83.82869,29.983186999999994],[-83.845427,29.998068],[-83.93151,30.039068000000007],[-83.933668,30.041151999999997],[-83.931879,30.044174999999996],[-83.93343200000001,30.046304999999997],[-83.95968000000002,30.064942999999996],[-83.991607,30.083919999999996],[-83.915533,30.245386000000007]]]}},{"type":"Feature","properties":{"name":"Franklin","fips":"12037","available":true},"geometry":{"type":"MultiPolygon","coordinates":[[[[-84.777208,29.707398],[-84.729836,29.738880999999992],[-84.71699400000001,29.749065999999992],[-84.696726,29.769929999999995],[-84.694125,29.764593],[-84.694939,29.761843999999996],[-84.713747,29.741389999999996],[-84.765117,29.699723999999993],[-84.776954,29.692190999999998],[-84.799129,29.681564999999996],[-84.853829,29.66472],[-84.884632,29.652248000000004],[-84.957779,29.612634999999997],[-85.036219,29.588918999999997],[-85.051033,29.586927999999993],[-85.069453,29.605281999999992],[-85.097082,29.625215],[-85.094882,29.627757],[-85.06653000000001,29.609951999999996],[-85.03849700000002,29.599551999999996],[-85.023501,29.597072999999988],[-85.017205,29.604378999999998],[-84.987775,29.610306999999995],[-84.968314,29.617237999999997],[-84.932592,29.637232000000004],[-84.920333,29.64863799999999],[-84.895885,29.657444],[-84.862099,29.672572],[-84.813352,29.687027999999994],[-84.79816,29.699321000000005],[-84.777208,29.707398]]],[[[-85.156415,29.679628000000005],[-85.137397,29.684348000000004],[-85.134639,29.686568999999995],[-85.114268,29.68865800000001],[-85.093902,29.684838000000006],[-85.083719,29.679019],[-85.07723700000001,29.670862],[-85.091399,29.648633999999994],[-85.097218,29.63300399999999],[-85.124913,29.628432999999994],[-85.142746,29.635404],[-85.18453,29.663987000000002],[-85.204314,29.672694999999994],[-85.222546,29.678039000000005],[-85.220324,29.680137999999992],[-85.208981,29.681775000000002],[-85.184776,29.682709999999997],[-85.168625,29.682409],[-85.156415,29.679628000000005]]],[[[-84.54445,30.011029999999998],[-84.341261,29.960775000000005],[-84.333746,29.923721000000004],[-84.33595300000002,29.912961999999993],[-84.343389,29.899539],[-84.349066,29.896812],[-84.37893700000001,29.893111999999988],[-84.404958,29.901229000000004],[-84.423834,29.902995999999987],[-84.434287,29.906327999999995],[-84.443652,29.913785000000008],[-84.451705,29.92908500000001],[-84.470323,29.92452400000001],[-84.49456200000002,29.913957],[-84.511996,29.916574],[-84.535873,29.91009199999999],[-84.57744,29.887828],[-84.603303,29.876116999999994],[-84.613154,29.867983999999993],[-84.647958,29.847103999999995],[-84.656318,29.837943000000003],[-84.65645,29.834277],[-84.669728,29.828909999999993],[-84.683934,29.831327],[-84.692053,29.829059],[-84.730327,29.80689999999999],[-84.75559500000001,29.788539999999994],[-84.762998,29.788845999999996],[-84.824197,29.758288],[-84.83716800000002,29.755926],[-84.868271,29.74245399999999],[-84.881777,29.733882],[-84.888031,29.722405999999992],[-84.892493,29.722659999999994],[-84.901781,29.735722999999993],[-84.890066,29.755801999999996],[-84.877111,29.772888000000002],[-84.893992,29.785176],[-84.90413,29.786278999999997],[-84.91511,29.783303],[-84.92091700000002,29.772901000000008],[-84.93837,29.750210999999997],[-84.946595,29.745031999999995],[-84.964007,29.742422000000005],[-84.968841,29.72708],[-84.977004,29.721208999999988],[-84.993264,29.714961000000002],[-85.037212,29.711073999999993],[-85.072123,29.719027000000004],[-85.101682,29.71874800000001],[-85.121473,29.715854],[-85.153238,29.708230999999994],[-85.177284,29.70019299999999],[-85.217355,29.694953],[-85.109401,29.776792999999994],[-85.040078,29.779345999999997],[-85.012191,29.873166999999995],[-85.025439,29.971399000000005],[-85.007626,30.013882999999996],[-84.54445,30.011029999999998]]]]}},{"type":"Feature","properties":{"name":"Hillsborough","fips":"12057","available":true},"geometry":{"type":"Polygon","coordinates":[[[-82.651165,28.173266],[-82.056261,28.171592],[-82.054349,27.646382],[-82.554499,27.645144999999996],[-82.514265,27.705588],[-82.494891,27.718962999999995],[-82.482449,27.719885999999995],[-82.477638,27.723004],[-82.477129,27.735216],[-82.482305,27.742649],[-82.478339,27.746249999999996],[-82.457543,27.752571],[-82.434635,27.764354999999995],[-82.43198,27.768092],[-82.433981,27.774087],[-82.419066,27.793767],[-82.418401,27.803187],[-82.410837,27.810867999999996],[-82.402857,27.812671000000005],[-82.39338300000001,27.837519],[-82.402615,27.882602000000002],[-82.41391500000002,27.901401],[-82.432316,27.901301],[-82.451591,27.907505999999998],[-82.460016,27.9116],[-82.459616,27.9169],[-82.462078,27.920066],[-82.478063,27.927680000000002],[-82.489817,27.9196],[-82.491117,27.9145],[-82.487417,27.895001],[-82.488057,27.86356599999999],[-82.480137,27.85324599999999],[-82.471624,27.847342],[-82.46884,27.843295],[-82.47244,27.82255899999999],[-82.475273,27.820990999999996],[-82.489849,27.822607000000005],[-82.511193,27.828014999999994],[-82.553946,27.848462],[-82.552918,27.862702],[-82.538618,27.864901],[-82.529918,27.877500999999995],[-82.539318,27.885000999999995],[-82.542818,27.890601],[-82.541747,27.893706],[-82.531318,27.903899999999993],[-82.53371800000001,27.932999],[-82.541218,27.948997999999992],[-82.553918,27.966997999999993],[-82.589419,27.97089799999999],[-82.61952,27.969697999999998],[-82.648616,27.966309000000003],[-82.651165,28.173266]]]}},{"type":"Feature","properties":{"name":"Jefferson","fips":"12065","available":true},"geometry":{"type":"Polygon","coordinates":[[[-84.007391,30.672096999999997],[-83.61172,30.651257999999995],[-83.604186,30.581915999999993],[-83.731107,30.492314999999998],[-83.72172,30.434353999999992],[-83.806667,30.371689],[-83.820235,30.30354],[-83.829465,30.287862999999998],[-83.915533,30.245386000000007],[-83.991607,30.083919999999996],[-84.000716,30.096208999999995],[-84.024274,30.103271],[-84.04871500000002,30.103208],[-84.06299,30.101377999999993],[-84.076043,30.095463999999996],[-84.074691,30.434301999999995],[-84.041488,30.463308],[-84.041192,30.483967],[-83.977165,30.521987],[-84.007391,30.672096999999997]]]}},{"type":"Feature","properties":{"name":"Brevard","fips":"12009","available":true},"geometry":{"type":"Polygon","coordinates":[[[-80.647288,28.677874999999997],[-80.61679000000001,28.634561],[-80.583884,28.597704999999998],[-80.574868,28.585165999999997],[-80.567361,28.562352999999998],[-80.560973,28.530736000000005],[-80.536115,28.478647],[-80.525094,28.459453999999997],[-80.526732,28.451704999999997],[-80.562877,28.437778999999995],[-80.574136,28.427763999999996],[-80.587813,28.410856],[-80.596174,28.390681999999998],[-80.603374,28.363983000000005],[-80.608074,28.311285],[-80.604214,28.257733],[-80.58997500000001,28.17799],[-80.566432,28.095630000000003],[-80.547675,28.04879499999999],[-80.508871,27.970476999999995],[-80.447084,27.860754999999997],[-80.509075,27.822057999999995],[-80.868881,27.822522],[-80.862815,28.347220999999998],[-80.88089,28.503633],[-80.98725,28.612997],[-80.964466,28.612992],[-80.967895,28.790197000000006],[-80.732244,28.79123700000001],[-80.709725,28.756692000000005],[-80.647288,28.677874999999997]]]}},{"type":"Feature","properties":{"name":"Levy","fips":"12075","available":true},"geometry":{"type":"Polygon","coordinates":[[[-82.40662,29.485047999999995],[-82.403237,29.215622999999997],[-82.53486,29.21468],[-82.535591,29.04485499999999],[-82.612653,29.009270999999995],[-82.689814,29.033962],[-82.760551,28.993086999999996],[-82.764055,28.999707],[-82.759378,29.006618999999997],[-82.753513,29.026496],[-82.759704,29.054192000000004],[-82.783328,29.064619],[-82.780558,29.07358],[-82.81692500000001,29.076215],[-82.823659,29.098902],[-82.809483,29.10462],[-82.801166,29.105103000000003],[-82.798876,29.114503999999986],[-82.805703,29.129848],[-82.804736,29.146623999999996],[-82.827073,29.158424999999998],[-82.858179,29.162274999999994],[-82.887211,29.161741],[-82.922613,29.169769000000002],[-82.945302,29.167821000000004],[-82.974676,29.170910000000003],[-82.979522,29.171817],[-82.987162,29.180094],[-82.991653,29.180663999999997],[-82.996144,29.178073999999995],[-83.018212,29.151417],[-83.019071,29.141323999999994],[-83.030453,29.134023],[-83.053207,29.130839000000005],[-83.056867,29.146263],[-83.068249,29.153134999999992],[-83.060947,29.170958999999993],[-83.061162,29.176113000000004],[-83.065242,29.184489],[-83.078986,29.19694399999999],[-83.087839,29.21642],[-83.074734,29.247974999999997],[-83.077265,29.255331000000005],[-83.089013,29.266501999999996],[-83.107477,29.268889],[-83.125567,29.278844999999986],[-83.128027,29.282733000000004],[-83.149764,29.289767999999995],[-83.16073,29.286610999999994],[-83.166091,29.288880000000002],[-83.068522,29.343953000000003],[-82.984371,29.471004],[-82.937374,29.591312000000002],[-82.656301,29.564810999999995],[-82.556511,29.511982000000003],[-82.556766,29.480054999999993],[-82.40662,29.485047999999995]]]}},{"type":"Feature","properties":{"name":"Collier","fips":"12021","available":true},"geometry":{"type":"Polygon","coordinates":[[[-81.563763,26.513324000000004],[-81.27176800000001,26.517068999999992],[-81.26855,26.253044999999997],[-80.879809,26.259455],[-80.87274800000002,26.000369999999993],[-80.873096,25.805377],[-81.344564,25.803321999999998],[-81.349152,25.816847],[-81.35273100000002,25.822014999999997],[-81.362272,25.824401],[-81.386127,25.839905999999996],[-81.394476,25.851833999999997],[-81.417536,25.864953999999997],[-81.424295,25.867737],[-81.429066,25.865350999999997],[-81.441391,25.863760999999993],[-81.458487,25.868928999999994],[-81.471607,25.881651999999995],[-81.473992,25.888410999999998],[-81.48751,25.888411],[-81.501027,25.884037],[-81.508979,25.884036999999996],[-81.512955,25.886423],[-81.511762,25.896759999999997],[-81.515738,25.899941],[-81.527665,25.901531000000002],[-81.541183,25.900337999999998],[-81.577363,25.889205999999994],[-81.58451900000001,25.888808000000008],[-81.614735,25.893977],[-81.623482,25.897158],[-81.644553,25.897952999999998],[-81.654493,25.893579000000003],[-81.663821,25.885604999999998],[-81.672633,25.856653999999995],[-81.678287,25.845300999999996],[-81.6848,25.847205],[-81.68954,25.852710000000002],[-81.713172,25.897568000000003],[-81.727086,25.907207],[-81.73195,25.931506],[-81.738118,25.942009000000002],[-81.745579,25.949642999999995],[-81.749724,25.960462999999997],[-81.747834,25.994273000000003],[-81.75066800000002,25.998424999999997],[-81.757463,26.000373999999994],[-81.762439,26.006070000000005],[-81.801663,26.088226999999996],[-81.808833,26.152246],[-81.81461,26.173167],[-81.820675,26.236734999999992],[-81.833142,26.294518000000004],[-81.845834,26.330378],[-81.690494,26.317333999999995],[-81.659506,26.421077],[-81.56218,26.422625000000004],[-81.563763,26.513324000000004]]]}},{"type":"Feature","properties":{"name":"Escambia","fips":"12033","available":true},"geometry":{"type":"Polygon","coordinates":[[[-86.919292,30.370675000000002],[-87.155392,30.327747999999996],[-87.206254,30.320942999999996],[-87.267827,30.31548],[-87.295422,30.323503000000006],[-87.319518,30.317814],[-87.350486,30.313064],[-87.41985900000002,30.297128000000004],[-87.518324,30.28043499999999],[-87.452378,30.300201000000005],[-87.450078,30.311099999999996],[-87.451378,30.367199000000006],[-87.440678,30.391498],[-87.427478,30.408398],[-87.419177,30.410198000000005],[-87.430578,30.491095999999995],[-87.44992100000002,30.514690000000005],[-87.394479,30.625192000000006],[-87.394219,30.641698999999996],[-87.396997,30.653639999999992],[-87.407118,30.671796000000008],[-87.449362,30.698912999999994],[-87.481225,30.716508],[-87.502926,30.722369],[-87.532607,30.743489],[-87.624137,30.845713000000003],[-87.634938,30.865886],[-87.622203,30.897508],[-87.601355,30.936294000000004],[-87.59411100000001,30.97633499999999],[-87.598928,30.997456999999994],[-87.163084,30.999051],[-87.286882,30.925441],[-87.313611,30.847266000000005],[-87.308502,30.72691],[-87.269407,30.711687],[-87.258884,30.611280999999998],[-87.124968,30.500195999999992],[-87.1344,30.420294000000002],[-87.23297,30.348999000000006],[-86.919292,30.370675000000002]]]}}]}
